ONEWEB-0545             
1 54647U 22166F   25361.81380015  .00000051  00000+0  92787-4 0  9998
2 54647  87.9226 278.1688 0002157  79.8536 280.2841 13.21828475148868
ONEWEB-0580             
1 54648U 22166G   25361.78748780  .00000043  00000+0  72132-4 0  9995
2 54648  87.9226 278.1732 0001984  83.4155 276.7205 13.21827465148901
ONEWEB-0582             
1 54649U 22166H   25361.83026853  .00000056  00000+0  10382-3 0  9994
2 54649  87.9225 278.1575 0002158  84.7319 275.4061 13.21827339148889
ONEWEB-0583             
1 54650U 22166J   25361.31191485  .00000030  00000+0  40619-4 0  9992
2 54650  87.9224 278.2852 0001852  75.6563 284.4776 13.21826730148820
ONEWEB-0584             
1 54651U 22166K   25361.78584057  .00000075  00000+0  15123-3 0  9995
2 54651  87.9227 278.1775 0001916  85.8539 274.2814 13.21826662148873
ONEWEB-0585             
1 54652U 22166L   25361.73483220  .00000085  00000+0  17336-3 0  9990
2 54652  87.9225 278.1722 0001614  73.8424 286.2888 13.21825437148872
ONEWEB-0586             
1 54653U 22166M   25361.82369720  .00000097  00000+0  20385-3 0  9990
2 54653  87.9224 278.1799 0001867  77.0399 283.0943 13.21824915148881
ONEWEB-0587             
1 54654U 22166N   25361.83355674  .00000052  00000+0  94822-4 0  9994
2 54654  87.9237 278.1355 0001393  65.3316 294.7963 13.21827712149045
